ONEWEB-0020             
1 45133U 20008C   25007.09573972 -.00000489  00000+0 -14363-2 0  9993
2 45133  87.8914 141.0647 0001752 101.2698 258.8626 13.10375280240227
ONEWEB-0021             
1 45134U 20008D   25006.88161654  .00000387  00000+0  10729-2 0  9997
2 45134  87.8920 141.1321 0001353 102.2361 257.8918 13.10376701239725
ONEWEB-0023             
1 45136U 20008F   25006.89407563  .00000637  00000+0  17881-2 0  9996
2 45136  87.8916 141.1172 0001629  93.4961 266.6352 13.10373152239153
ONEWEB-0024             
1 45137U 20008G   25006.86500525 -.00000391  00000+0 -11551-2 0  9993
2 45137  87.8908 141.0896 0001450 105.2681 254.8607 13.10375813240060
ONEWEB-0025             
1 45138U 20008H   25006.88327668  .00000475  00000+0  13238-2 0  9996
2 45138  87.8907 141.0868 0001156  83.4057 276.7202 13.10375353239641
ONEWEB-0026             
1 45139U 20008J   25006.86344209  .00000303  00000+0  82019-3 0  9999
2 45139  87.8914 125.9560 0001744 109.9263 250.2053 13.11414285242123
ONEWEB-0028             
1 45140U 20008K   25006.81848712 -.00000486  00000+0 -14066-2 0  9994
2 45140  87.8912 125.9964 0001270  85.9051 274.2222 13.11415507239637
ONEWEB-0032             
1 45141U 20008L   25007.12729340  .00000697  00000+0  19611-2 0  9998
2 45141  87.8905 141.0874 0001360  96.3542 263.7740 13.10373354240261
